CCSDS_OMM_VERS = 2.0
CREATION_DATE  = 
ORIGINATOR     = 

OBJECT_NAME    = DELTA 2 R/B(1)
OBJECT_ID      = 1990-008B
CENTER_NAME    = EARTH
REF_FRAME      = TEME
TIME_SYSTEM    = UTC
MEAN_ELEMENT_THEORY = SGP/SGP4

EPOCH          = 2026-02-26T20:18:58.482144
MEAN_MOTION    = 15.54306752
ECCENTRICITY   = .0087711
INCLINATION    = 35.6027
RA_OF_ASC_NODE = 245.9300
ARG_OF_PERICENTER = 157.9804
MEAN_ANOMALY   = 202.4733

EPHEMERIS_TYPE = 0
CLASSIFICATION_TYPE = U
NORAD_CAT_ID   = 20453
ELEMENT_SET_NO = 999
REV_AT_EPOCH   = 92444
BSTAR          = .8775E-3
MEAN_MOTION_DOT = .70904E-3
MEAN_MOTION_DDOT = 0

CCSDS_OMM_VERS = 2.0
CREATION_DATE  = 
ORIGINATOR     = 

OBJECT_NAME    = COSMOS 2058
OBJECT_ID      = 1990-010A
CENTER_NAME    = EARTH
REF_FRAME      = TEME
TIME_SYSTEM    = UTC
MEAN_ELEMENT_THEORY = SGP/SGP4

EPOCH          = 2026-02-27T01:18:11.169216
MEAN_MOTION    = 15.11210189
ECCENTRICITY   = .00101152
INCLINATION    = 82.4667
RA_OF_ASC_NODE = 57.9060
ARG_OF_PERICENTER = 18.9304
MEAN_ANOMALY   = 341.2300

EPHEMERIS_TYPE = 0
CLASSIFICATION_TYPE = U
NORAD_CAT_ID   = 20465
ELEMENT_SET_NO = 999
REV_AT_EPOCH   = 94063
BSTAR          = .24583734E-3
MEAN_MOTION_DOT = .4161E-4
MEAN_MOTION_DDOT = 0

CCSDS_OMM_VERS = 2.0
CREATION_DATE  = 
ORIGINATOR     = 

OBJECT_NAME    = SL-14 R/B
OBJECT_ID      = 1990-010B
CENTER_NAME    = EARTH
REF_FRAME      = TEME
TIME_SYSTEM    = UTC
MEAN_ELEMENT_THEORY = SGP/SGP4

EPOCH          = 2026-02-27T02:20:45.960288
MEAN_MOTION    = 14.83558405
ECCENTRICITY   = .00192528
INCLINATION    = 82.4996
RA_OF_ASC_NODE = 277.3404
ARG_OF_PERICENTER = 339.1012
MEAN_ANOMALY   = 20.9414

EPHEMERIS_TYPE = 0
CLASSIFICATION_TYPE = U
NORAD_CAT_ID   = 20466
ELEMENT_SET_NO = 999
REV_AT_EPOCH   = 92691
BSTAR          = .45909683E-4
MEAN_MOTION_DOT = .403E-5
MEAN_MOTION_DDOT = 0

CCSDS_OMM_VERS = 2.0
CREATION_DATE  = 
ORIGINATOR     = 

OBJECT_NAME    = SL-14 R/B
OBJECT_ID      = 1990-018B
CENTER_NAME    = EARTH
REF_FRAME      = TEME
TIME_SYSTEM    = UTC
MEAN_ELEMENT_THEORY = SGP/SGP4

EPOCH          = 2026-02-26T21:40:06.679776
MEAN_MOTION    = 14.82130836
ECCENTRICITY   = .0017466
INCLINATION    = 82.5186
RA_OF_ASC_NODE = 233.1732
ARG_OF_PERICENTER = 124.7984
MEAN_ANOMALY   = 235.4877

EPHEMERIS_TYPE = 0
CLASSIFICATION_TYPE = U
NORAD_CAT_ID   = 20511
ELEMENT_SET_NO = 999
REV_AT_EPOCH   = 92098
BSTAR          = .61936E-4
MEAN_MOTION_DOT = .518E-5
MEAN_MOTION_DDOT = 0

CCSDS_OMM_VERS = 2.0
CREATION_DATE  = 
ORIGINATOR     = 

OBJECT_NAME    = HST
OBJECT_ID      = 1990-037B
CENTER_NAME    = EARTH
REF_FRAME      = TEME
TIME_SYSTEM    = UTC
MEAN_ELEMENT_THEORY = SGP/SGP4

EPOCH          = 2026-02-27T05:47:12.258240
MEAN_MOTION    = 15.29292719
ECCENTRICITY   = .00013908
INCLINATION    = 28.4695
RA_OF_ASC_NODE = 111.2668
ARG_OF_PERICENTER = 17.2349
MEAN_ANOMALY   = 342.8294

EPHEMERIS_TYPE = 0
CLASSIFICATION_TYPE = U
NORAD_CAT_ID   = 20580
ELEMENT_SET_NO = 999
REV_AT_EPOCH   = 77171
BSTAR          = .26999326E-3
MEAN_MOTION_DOT = .8127E-4
MEAN_MOTION_DDOT = 0

CCSDS_OMM_VERS = 2.0
CREATION_DATE  = 
ORIGINATOR     = 

OBJECT_NAME    = SL-16 R/B
OBJECT_ID      = 1990-046B
CENTER_NAME    = EARTH
REF_FRAME      = TEME
TIME_SYSTEM    = UTC
MEAN_ELEMENT_THEORY = SGP/SGP4

EPOCH          = 2026-02-27T03:56:20.317920
MEAN_MOTION    = 14.15015375
ECCENTRICITY   = .00159337
INCLINATION    = 71.0012
RA_OF_ASC_NODE = 320.0198
ARG_OF_PERICENTER = 313.9094
MEAN_ANOMALY   = 46.0712

EPHEMERIS_TYPE = 0
CLASSIFICATION_TYPE = U
NORAD_CAT_ID   = 20625
ELEMENT_SET_NO = 999
REV_AT_EPOCH   = 84690
BSTAR          = -.15492129E-4
MEAN_MOTION_DOT = -.78E-6
MEAN_MOTION_DDOT = 0

CCSDS_OMM_VERS = 2.0
CREATION_DATE  = 
ORIGINATOR     = 

OBJECT_NAME    = COSMOS 2084
OBJECT_ID      = 1990-055A
CENTER_NAME    = EARTH
REF_FRAME      = TEME
TIME_SYSTEM    = UTC
MEAN_ELEMENT_THEORY = SGP/SGP4

EPOCH          = 2026-02-27T05:28:37.332768
MEAN_MOTION    = 15.05573426
ECCENTRICITY   = .00186963
INCLINATION    = 62.7912
RA_OF_ASC_NODE = 11.2549
ARG_OF_PERICENTER = 187.4770
MEAN_ANOMALY   = 172.6055

EPHEMERIS_TYPE = 0
CLASSIFICATION_TYPE = U
NORAD_CAT_ID   = 20663
ELEMENT_SET_NO = 999
REV_AT_EPOCH   = 93474
BSTAR          = .2253648E-3
MEAN_MOTION_DOT = .3073E-4
MEAN_MOTION_DDOT = 0

CCSDS_OMM_VERS = 2.0
CREATION_DATE  = 
ORIGINATOR     = 

OBJECT_NAME    = SL-6 R/B(2)
OBJECT_ID      = 1990-055D
CENTER_NAME    = EARTH
REF_FRAME      = TEME
TIME_SYSTEM    = UTC
MEAN_ELEMENT_THEORY = SGP/SGP4

EPOCH          = 2026-02-26T15:56:56.327712
MEAN_MOTION    = 15.03534534
ECCENTRICITY   = .0023035
INCLINATION    = 62.7828
RA_OF_ASC_NODE = 291.3432
ARG_OF_PERICENTER = 344.2382
MEAN_ANOMALY   = 15.7997

EPHEMERIS_TYPE = 0
CLASSIFICATION_TYPE = U
NORAD_CAT_ID   = 20666
ELEMENT_SET_NO = 999
REV_AT_EPOCH   = 93653
BSTAR          = .15506E-3
MEAN_MOTION_DOT = .1936E-4
MEAN_MOTION_DDOT = 0

CCSDS_OMM_VERS = 2.0
CREATION_DATE  = 
ORIGINATOR     = 

OBJECT_NAME    = SL-8 R/B
OBJECT_ID      = 1990-078B
CENTER_NAME    = EARTH
REF_FRAME      = TEME
TIME_SYSTEM    = UTC
MEAN_ELEMENT_THEORY = SGP/SGP4

EPOCH          = 2026-02-27T00:35:04.680672
MEAN_MOTION    = 14.88658851
ECCENTRICITY   = .03647531
INCLINATION    = 82.8999
RA_OF_ASC_NODE = 260.9012
ARG_OF_PERICENTER = 49.7906
MEAN_ANOMALY   = 313.4631

EPHEMERIS_TYPE = 0
CLASSIFICATION_TYPE = U
NORAD_CAT_ID   = 20775
ELEMENT_SET_NO = 999
REV_AT_EPOCH   = 80771
BSTAR          = .48206807E-3
MEAN_MOTION_DOT = .16431E-3
MEAN_MOTION_DDOT = 0

CCSDS_OMM_VERS = 2.0
CREATION_DATE  = 
ORIGINATOR     = 

OBJECT_NAME    = SL-8 R/B
OBJECT_ID      = 1991-006B
CENTER_NAME    = EARTH
REF_FRAME      = TEME
TIME_SYSTEM    = UTC
MEAN_ELEMENT_THEORY = SGP/SGP4

EPOCH          = 2026-02-27T07:17:01.454784
MEAN_MOTION    = 13.77493004
ECCENTRICITY   = .00235649
INCLINATION    = 82.9461
RA_OF_ASC_NODE = 177.7666
ARG_OF_PERICENTER = 66.2599
MEAN_ANOMALY   = 322.9509

EPHEMERIS_TYPE = 0
CLASSIFICATION_TYPE = U
NORAD_CAT_ID   = 21088
ELEMENT_SET_NO = 999
REV_AT_EPOCH   = 76264
BSTAR          = .28313131E-4
MEAN_MOTION_DOT = .44E-6
MEAN_MOTION_DDOT = 0

CCSDS_OMM_VERS = 2.0
CREATION_DATE  = 
ORIGINATOR     = 

OBJECT_NAME    = OKEAN-3
OBJECT_ID      = 1991-039A
CENTER_NAME    = EARTH
REF_FRAME      = TEME
TIME_SYSTEM    = UTC
MEAN_ELEMENT_THEORY = SGP/SGP4

EPOCH          = 2026-02-27T05:44:01.432608
MEAN_MOTION    = 15.04719015
ECCENTRICITY   = .00146762
INCLINATION    = 82.5199
RA_OF_ASC_NODE = 346.9655
ARG_OF_PERICENTER = 13.9306
MEAN_ANOMALY   = 346.2322

EPHEMERIS_TYPE = 0
CLASSIFICATION_TYPE = U
NORAD_CAT_ID   = 21397
ELEMENT_SET_NO = 999
REV_AT_EPOCH   = 86346
BSTAR          = .24816965E-3
MEAN_MOTION_DOT = .3529E-4
MEAN_MOTION_DDOT = 0

CCSDS_OMM_VERS = 2.0
CREATION_DATE  = 
ORIGINATOR     = 

OBJECT_NAME    = COSMOS 2151
OBJECT_ID      = 1991-042A
CENTER_NAME    = EARTH
REF_FRAME      = TEME
TIME_SYSTEM    = UTC
MEAN_ELEMENT_THEORY = SGP/SGP4

EPOCH          = 2026-02-27T05:03:23.274720
MEAN_MOTION    = 15.00057941
ECCENTRICITY   = .00141404
INCLINATION    = 82.4935
RA_OF_ASC_NODE = 93.7869
ARG_OF_PERICENTER = 94.9162
MEAN_ANOMALY   = 265.3677

EPHEMERIS_TYPE = 0
CLASSIFICATION_TYPE = U
NORAD_CAT_ID   = 21422
ELEMENT_SET_NO = 999
REV_AT_EPOCH   = 86162
BSTAR          = .12147762E-3
MEAN_MOTION_DOT = .1542E-4
MEAN_MOTION_DDOT = 0

