DELTA 2 R/B(1)          
1 20453U 90008B   26057.84651021  .00070904  00000+0  87750-3 0  9997
2 20453  35.6027 245.9300 0087711 157.9804 202.4733 15.54306752924442
COSMOS 2058             
1 20465U 90010A   26058.05429594  .00004161  00000+0  24584-3 0  9993
2 20465  82.4667  57.9060 0010115  18.9304 341.2300 15.11210189940636
SL-14 R/B               
1 20466U 90010B   26058.09775417  .00000403  00000+0  45910-4 0  9998
2 20466  82.4996 277.3404 0019252 339.1012  20.9414 14.83558405926913
SL-14 R/B               
1 20511U 90018B   26057.90285509  .00000518  00000+0  61936-4 0  9997
2 20511  82.5186 233.1732 0017466 124.7984 235.4877 14.82130836920981
HST                     
1 20580U 90037B   26058.24111410  .00008127  00000+0  26999-3 0  9994
2 20580  28.4695 111.2668 0001390  17.2349 342.8294 15.29292719771717
SL-16 R/B               
1 20625U 90046B   26058.16412405 -.00000078  00000+0 -15492-4 0  9999
2 20625  71.0012 320.0198 0015933 313.9094  46.0712 14.15015375846900
COSMOS 2084             
1 20663U 90055A   26058.22820987  .00003073  00000+0  22536-3 0  9998
2 20663  62.7912  11.2549 0018696 187.4770 172.6055 15.05573426934743
SL-6 R/B(2)             
1 20666U 90055D   26057.66454083  .00001936  00000+0  15506-3 0  9993
2 20666  62.7828 291.3432 0023035 344.2382  15.7997 15.03534534936535
SL-8 R/B                
1 20775U 90078B   26058.02435973  .00016431  00000+0  48207-3 0  9997
2 20775  82.8999 260.9012 0364753  49.7906 313.4631 14.88658851807719
SL-8 R/B                
1 21088U 91006B   26058.30348906  .00000044  00000+0  28313-4 0  9997
2 21088  82.9461 177.7666 0023564  66.2599 322.9509 13.77493004762641
OKEAN-3                 
1 21397U 91039A   26058.23890547  .00003529  00000+0  24817-3 0  9996
2 21397  82.5199 346.9655 0014676  13.9306 346.2322 15.04719015863464
COSMOS 2151             
1 21422U 91042A   26058.21068605  .00001542  00000+0  12148-3 0  9996
2 21422  82.4935  93.7869 0014140  94.9162 265.3677 15.00057941861628
